start=new Date('2022-08-07T00:00:00.000Z').valueOf();
sats=[{"COUNTRY_CODE":"US","MEAN_MOTION":"15.06403349","TLE_LINE2":"2 48123  53.0543 277.7737 0001240  75.5465 284.5661 15.06403349 74669","TIME_SYSTEM":"UTC","OBJECT_TYPE":"PAYLOAD","RA_OF_ASC_NODE":"277.7737","OBJECT_NAME":"STARLINK-2464","MEAN_ANOMALY":"284.5661","CLASSIFICATION_TYPE":"U","SEMIMAJOR_AXIS":"6925.338","TLE_LINE1":"1 48123U 21027AH  22218.50345201  .00000141  00000-0  28380-4 0  9996","DECAY_DATE":null,"APOAPSIS":"548.062","INCLINATION":"53.0543","GP_ID":"209701458","MEAN_ELEMENT_THEORY":"SGP4","REF_FRAME":"TEME","NORAD_CAT_ID":"48123","CENTER_NAME":"EARTH","BSTAR":"0.00002838000000","MEAN_MOTION_DOT":"0.00000141","MEAN_MOTION_DDOT":"0.0000000000000","RCS_SIZE":"LARGE","FILE":"3530773","PERIAPSIS":"546.345","ECCENTRICITY":"0.00012400","LAUNCH_DATE":"2021-04-07","ELEMENT_SET_NO":"999","PERIOD":"95.592","OBJECT_ID":"2021-027AH","REV_AT_EPOCH":"7466","ARG_OF_PERICENTER":"75.5465","EPOCH":"2022-08-06T12:04:58.253664","EPHEMERIS_TYPE":"0","SITE":"AFETR"},{"REF_FRAME":"TEME","MEAN_ELEMENT_THEORY":"SGP4","NORAD_CAT_ID":"48124","BSTAR":"0.00002528400000","CENTER_NAME":"EARTH","MEAN_MOTION_DOT":"0.00000095","MEAN_MOTION_DDOT":"0.0000000000000","RCS_SIZE":"LARGE","FILE":"3530579","ECCENTRICITY":"0.00012740","PERIAPSIS":"546.362","PERIOD":"95.593","LAUNCH_DATE":"2021-04-07","ELEMENT_SET_NO":"999","OBJECT_ID":"2021-027AJ","REV_AT_EPOCH":"7491","ARG_OF_PERICENTER":"74.7292","EPOCH":"2022-08-06T10:28:06.924864","EPHEMERIS_TYPE":"0","SITE":"AFETR","COUNTRY_CODE":"US","MEAN_MOTION":"15.06390033","TLE_LINE2":"2 48124  53.0535 288.0780 0001274  74.7292 285.3837 15.06390033 74917","TIME_SYSTEM":"UTC","OBJECT_TYPE":"PAYLOAD","RA_OF_ASC_NODE":"288.0780","OBJECT_NAME":"STARLINK-2465","MEAN_ANOMALY":"285.3837","CLASSIFICATION_TYPE":"U","SEMIMAJOR_AXIS":"6925.379","TLE_LINE1":"1 48124U 21027AJ  22218.43619126  .00000095  00000-0  25284-4 0  9997","DECAY_DATE":null,"APOAPSIS":"548.126","INCLINATION":"53.0535","GP_ID":"209693979"},{"RCS_SIZE":"LARGE","MEAN_MOTION_DDOT":"0.0000000000000","CENTER_NAME":"EARTH","BSTAR":"-0.00005042500000","MEAN_MOTION_DOT":"-0.00001032","MEAN_ELEMENT_THEORY":"SGP4","REF_FRAME":"TEME","NORAD_CAT_ID":"48125","OBJECT_ID":"2021-027AK","REV_AT_EPOCH":"7481","PERIAPSIS":"546.337","ECCENTRICITY":"0.00012940","LAUNCH_DATE":"2021-04-07","ELEMENT_SET_NO":"999","PERIOD":"95.593","FILE":"3530813","ARG_OF_PERICENTER":"86.8531","EPOCH":"2022-08-06T15:34:40.757376","SITE":"AFETR","EPHEMERIS_TYPE":"0","TLE_LINE2":"2 48125  53.0557 297.3544 0001294  86.8531 273.2606 15.06393550 74811","MEAN_MOTION":"15.06393550","COUNTRY_CODE":"US","OBJECT_NAME":"STARLINK-2466","TIME_SYSTEM":"UTC","OBJECT_TYPE":"PAYLOAD","RA_OF_ASC_NODE":"297.3544","CLASSIFICATION_TYPE":"U","SEMIMAJOR_AXIS":"6925.368","MEAN_ANOMALY":"273.2606","GP_ID":"209724832","APOAPSIS":"548.129","INCLINATION":"53.0557","TLE_LINE1":"1 48125U 21027AK  22218.64908284 -.00001032  00000-0 -50425-4 0  9996","DECAY_DATE":null},{"DECAY_DATE":null,"TLE_LINE1":"1 48126U 21027AL  22218.33758642  .00000071  00000-0  23636-4 0  9998","INCLINATION":"53.0551","APOAPSIS":"547.987","GP_ID":"209694982","MEAN_ANOMALY":"281.3612","SEMIMAJOR_AXIS":"6925.345","CLASSIFICATION_TYPE":"U","OBJECT_TYPE":"PAYLOAD","RA_OF_ASC_NODE":"278.5064","TIME_SYSTEM":"UTC","OBJECT_NAME":"STARLINK-2467","COUNTRY_CODE":"US","MEAN_MOTION":"15.06401270","TLE_LINE2":"2 48126  53.0551 278.5064 0001123  78.7504 281.3612 15.06401270 75058","EPHEMERIS_TYPE":"0","SITE":"AFETR","EPOCH":"2022-08-06T08:06:07.466688","ARG_OF_PERICENTER":"78.7504","FILE":"3530579","PERIOD":"95.592","LAUNCH_DATE":"2021-04-07","ELEMENT_SET_NO":"999","PERIAPSIS":"546.432","ECCENTRICITY":"0.00011230","REV_AT_EPOCH":"7505","OBJECT_ID":"2021-027AL","NORAD_CAT_ID":"48126","MEAN_ELEMENT_THEORY":"SGP4","REF_FRAME":"TEME","MEAN_MOTION_DOT":"0.00000071","CENTER_NAME":"EARTH","BSTAR":"0.00002363600000","RCS_SIZE":"LARGE","MEAN_MOTION_DDOT":"0.0000000000000"},{"CLASSIFICATION_TYPE":"U","SEMIMAJOR_AXIS":"6925.402","MEAN_ANOMALY":"297.2688","APOAPSIS":"548.177","INCLINATION":"53.0561","GP_ID":"209700667","DECAY_DATE":null,"TLE_LINE1":"1 48127U 21027AM  22218.52741248  .00003455  00000-0  25083-3 0  9990","TLE_LINE2":"2 48127  53.0561 297.6653 0001314  62.8435 297.2688 15.06382695 74399","COUNTRY_CODE":"US","MEAN_MOTION":"15.06382695","RA_OF_ASC_NODE":"297.6653","OBJECT_TYPE":"PAYLOAD","TIME_SYSTEM":"UTC","OBJECT_NAME":"STARLINK-2468","ARG_OF_PERICENTER":"62.8435","EPOCH":"2022-08-06T12:39:28.438272","EPHEMERIS_TYPE":"0","SITE":"AFETR","CENTER_NAME":"EARTH","BSTAR":"0.00025083000000","MEAN_MOTION_DOT":"0.00003455","MEAN_MOTION_DDOT":"0.0000000000000","RCS_SIZE":"LARGE","MEAN_ELEMENT_THEORY":"SGP4","REF_FRAME":"TEME","NORAD_CAT_ID":"48127","OBJECT_ID":"2021-027AM","REV_AT_EPOCH":"7439","FILE":"3530670","PERIAPSIS":"546.357","ECCENTRICITY":"0.00013140","LAUNCH_DATE":"2021-04-07","ELEMENT_SET_NO":"999","PERIOD":"95.593"},{"APOAPSIS":"548.172","INCLINATION":"53.0543","GP_ID":"209694479","DECAY_DATE":null,"TLE_LINE1":"1 48128U 21027AN  22218.30902977  .00001225  00000-0  10110-3 0  9993","CLASSIFICATION_TYPE":"U","SEMIMAJOR_AXIS":"6925.324","MEAN_ANOMALY":"290.7749","OBJECT_TYPE":"PAYLOAD","RA_OF_ASC_NODE":"228.7297","TIME_SYSTEM":"UTC","OBJECT_NAME":"STARLINK-2469","TLE_LINE2":"2 48128  53.0543 228.7297 0001419  69.3392 290.7749 15.06407863 75739","COUNTRY_CODE":"US","MEAN_MOTION":"15.06407863","EPHEMERIS_TYPE":"0","SITE":"AFETR","ARG_OF_PERICENTER":"69.3392","EPOCH":"2022-08-06T07:25:00.172128","OBJECT_ID":"2021-027AN","REV_AT_EPOCH":"7573","FILE":"3530579","PERIAPSIS":"546.207","ECCENTRICITY":"0.00014190","ELEMENT_SET_NO":"999","LAUNCH_DATE":"2021-04-07","PERIOD":"95.592","BSTAR":"0.00010110000000","CENTER_NAME":"EARTH","MEAN_MOTION_DOT":"0.00001225","MEAN_MOTION_DDOT":"0.0000000000000","RCS_SIZE":"LARGE","MEAN_ELEMENT_THEORY":"SGP4","REF_FRAME":"TEME","NORAD_CAT_ID":"48128"},{"OBJECT_NAME":"STARLINK-2471","OBJECT_TYPE":"PAYLOAD","RA_OF_ASC_NODE":"297.4002","TIME_SYSTEM":"UTC","TLE_LINE2":"2 48129  53.0556 297.4002 0001487  73.2768 286.8384 15.06395143 74802","MEAN_MOTION":"15.06395143","COUNTRY_CODE":"US","GP_ID":"209724332","INCLINATION":"53.0556","APOAPSIS":"548.258","TLE_LINE1":"1 48129U 21027AP  22218.58639308  .00000850  00000-0  75943-4 0  9998","DECAY_DATE":null,"SEMIMAJOR_AXIS":"6925.363","CLASSIFICATION_TYPE":"U","MEAN_ANOMALY":"286.8384","REV_AT_EPOCH":"7480","OBJECT_ID":"2021-027AP","ELEMENT_SET_NO":"999","LAUNCH_DATE":"2021-04-07","PERIOD":"95.592","PERIAPSIS":"546.199","ECCENTRICITY":"0.00014870","FILE":"3530813","MEAN_MOTION_DDOT":"0.0000000000000","RCS_SIZE":"LARGE","MEAN_MOTION_DOT":"0.00000850","CENTER_NAME":"EARTH","BSTAR":"0.00007594300000","NORAD_CAT_ID":"48129","MEAN_ELEMENT_THEORY":"SGP4","REF_FRAME":"TEME","SITE":"AFETR","EPHEMERIS_TYPE":"0","EPOCH":"2022-08-06T14:04:24.362112","ARG_OF_PERICENTER":"73.2768"},{"MEAN_ANOMALY":"261.4377","CLASSIFICATION_TYPE":"U","SEMIMAJOR_AXIS":"6925.355","TLE_LINE1":"1 48130U 21027AQ  22218.64211470 -.00000670  00000-0 -26105-4 0  9991","DECAY_DATE":null,"GP_ID":"209724582","APOAPSIS":"548.017","INCLINATION":"53.0560","MEAN_MOTION":"15.06397887","COUNTRY_CODE":"US","TLE_LINE2":"2 48130  53.0560 302.1501 0001151  98.6742 261.4377 15.06397887 74749","OBJECT_NAME":"STARLINK-2472","OBJECT_TYPE":"PAYLOAD","TIME_SYSTEM":"UTC","RA_OF_ASC_NODE":"302.1501","ARG_OF_PERICENTER":"98.6742","EPOCH":"2022-08-06T15:24:38.710080","SITE":"AFETR","EPHEMERIS_TYPE":"0","MEAN_ELEMENT_THEORY":"SGP4","REF_FRAME":"TEME","NORAD_CAT_ID":"48130","RCS_SIZE":"LARGE","MEAN_MOTION_DDOT":"0.0000000000000","CENTER_NAME":"EARTH","BSTAR":"-0.00002610500000","MEAN_MOTION_DOT":"-0.00000670","ECCENTRICITY":"0.00011510","PERIAPSIS":"546.423","ELEMENT_SET_NO":"999","LAUNCH_DATE":"2021-04-07","PERIOD":"95.592","FILE":"3530813","OBJECT_ID":"2021-027AQ","REV_AT_EPOCH":"7474"},{"SEMIMAJOR_AXIS":"6925.331","CLASSIFICATION_TYPE":"U","MEAN_ANOMALY":"291.9312","GP_ID":"209694230","INCLINATION":"53.0544","APOAPSIS":"548.137","DECAY_DATE":null,"TLE_LINE1":"1 48131U 21027AR  22218.39655733  .00000058  00000-0  22802-4 0  9996","TLE_LINE2":"2 48131  53.0544 278.2355 0001358  68.1821 291.9312 15.06405641 75051","MEAN_MOTION":"15.06405641","COUNTRY_CODE":"US","OBJECT_NAME":"STARLINK-2473","OBJECT_TYPE":"PAYLOAD","TIME_SYSTEM":"UTC","RA_OF_ASC_NODE":"278.2355","EPOCH":"2022-08-06T09:31:02.553312","ARG_OF_PERICENTER":"68.1821","SITE":"AFETR","EPHEMERIS_TYPE":"0","MEAN_MOTION_DDOT":"0.0000000000000","RCS_SIZE":"LARGE","MEAN_MOTION_DOT":"0.00000058","BSTAR":"0.00002280200000","CENTER_NAME":"EARTH","NORAD_CAT_ID":"48131","MEAN_ELEMENT_THEORY":"SGP4","REF_FRAME":"TEME","REV_AT_EPOCH":"7505","OBJECT_ID":"2021-027AR","ELEMENT_SET_NO":"999","LAUNCH_DATE":"2021-04-07","PERIOD":"95.592","PERIAPSIS":"546.256","ECCENTRICITY":"0.00013580","FILE":"3530579"},{"TLE_LINE1":"1 48132U 21027AS  22218.64166865  .00000017  00000-0  20044-4 0  9999","DECAY_DATE":null,"GP_ID":"209726085","INCLINATION":"53.0547","APOAPSIS":"548.111","MEAN_ANOMALY":"280.2303","SEMIMAJOR_AXIS":"6925.331","CLASSIFICATION_TYPE":"U","OBJECT_NAME":"STARLINK-2474","OBJECT_TYPE":"PAYLOAD","RA_OF_ASC_NODE":"297.1574","TIME_SYSTEM":"UTC","MEAN_MOTION":"15.06405860","COUNTRY_CODE":"US","TLE_LINE2":"2 48132  53.0547 297.1574 0001322  79.8835 280.2303 15.06405860 74809","SITE":"AFETR","EPHEMERIS_TYPE":"0","EPOCH":"2022-08-06T15:24:00.171360","ARG_OF_PERICENTER":"79.8835","PERIOD":"95.592","LAUNCH_DATE":"2021-04-07","ELEMENT_SET_NO":"999","ECCENTRICITY":"0.00013220","PERIAPSIS":"546.280","FILE":"3530813","REV_AT_EPOCH":"7480","OBJECT_ID":"2021-027AS","NORAD_CAT_ID":"48132","REF_FRAME":"TEME","MEAN_ELEMENT_THEORY":"SGP4","RCS_SIZE":"LARGE","MEAN_MOTION_DDOT":"0.0000000000000","MEAN_MOTION_DOT":"0.00000017","CENTER_NAME":"EARTH","BSTAR":"0.00002004400000"}];
